OBJECT_NAME,OBJECT_ID,EPOCH,MEAN_MOTION,ECCENTRICITY,INCLINATION,RA_OF_ASC_NODE,ARG_OF_PERICENTER,MEAN_ANOMALY,EPHEMERIS_TYPE,CLASSIFICATION_TYPE,NORAD_CAT_ID,ELEMENT_SET_NO,REV_AT_EPOCH,BSTAR,MEAN_MOTION_DOT,MEAN_MOTION_DDOT
HAWK-6B,2023-011A,2026-07-23T20:04:37.631424,15.23211892,.0004564,40.4981,138.2572,283.3017,76.7283,0,U,55324,999,19343,.18888E-3,.4371E-4,0
HAWK-6C,2023-011C,2026-07-23T20:03:43.062048,15.23211246,.0004995,40.4974,135.0963,279.4626,80.5619,0,U,55326,999,19344,.19029E-3,.4405E-4,0
HAWK-6A,2023-011D,2026-07-23T20:03:46.156032,15.23212079,.0004809,40.4984,136.7238,275.4908,84.5352,0,U,55327,999,19344,.1916E-3,.4437E-4,0
HAWK-7A,2023-054P,2026-07-23T15:55:08.611104,15.27699387,.0000943,97.2653,91.0727,261.2494,98.8639,0,U,56191,999,18259,.20051E-3,.5355E-4,0
HAWK-7B,2023-054R,2026-07-23T09:37:45.651648,15.27698304,.000041,97.2682,89.0937,352.9552,7.1682,0,U,56193,999,18255,.2101E-3,.5614E-4,0
HAWK-7C,2023-054Y,2026-07-23T15:54:51.615360,15.27699920,.0000345,97.2656,90.1068,239.9854,120.1351,0,U,56200,999,18259,.19896E-3,.5313E-4,0
