HAWK-6B                 
1 55324U 23011A   26204.83654666  .00004371  00000+0  18888-3 0  9994
2 55324  40.4981 138.2572 0004564 283.3017  76.7283 15.23211892193435
HAWK-6C                 
1 55326U 23011C   26204.83591507  .00004405  00000+0  19029-3 0  9996
2 55326  40.4974 135.0963 0004995 279.4626  80.5619 15.23211246193448
HAWK-6A                 
1 55327U 23011D   26204.83595088  .00004437  00000+0  19160-3 0  9996
2 55327  40.4984 136.7238 0004809 275.4908  84.5352 15.23212079193449
HAWK-7A                 
1 56191U 23054P   26204.66329411  .00005355  00000+0  20051-3 0  9990
2 56191  97.2653  91.0727 0000943 261.2494  98.8639 15.27699387182591
HAWK-7B                 
1 56193U 23054R   26204.40122282  .00005614  00000+0  21010-3 0  9995
2 56193  97.2682  89.0937 0000410 352.9552   7.1682 15.27698304182552
HAWK-7C                 
1 56200U 23054Y   26204.66309740  .00005313  00000+0  19896-3 0  9993
2 56200  97.2656  90.1068 0000345 239.9854 120.1351 15.27699920182594
